start=new Date('2023-04-23T00:00:00.000Z').valueOf();
sats=[{"MEAN_MOTION_DOT":"0.00016878","PERIOD":"95.592","COUNTRY_CODE":"US","FILE":"3892285","MEAN_MOTION":"15.06402629","GP_ID":"230590974","TLE_LINE2":"2 46685  53.0523 299.5033 0000726  84.6395 275.4677 15.06402629138342","REF_FRAME":"TEME","REV_AT_EPOCH":"13834","EPHEMERIS_TYPE":"0","ELEMENT_SET_NO":"999","SEMIMAJOR_AXIS":"6925.341","TLE_LINE1":"1 46685U 20073R   23112.62729895  .00016878  00000-0  11492-2 0  9997","OBJECT_NAME":"STARLINK-1781","LAUNCH_DATE":"2020-10-18","CENTER_NAME":"EARTH","OBJECT_TYPE":"PAYLOAD","TIME_SYSTEM":"UTC","APOAPSIS":"547.708","RCS_SIZE":"LARGE","MEAN_MOTION_DDOT":"0.0000000000000","OBJECT_ID":"2020-073R","RA_OF_ASC_NODE":"299.5033","EPOCH":"2023-04-22T15:03:18.629280","PERIAPSIS":"546.703","CLASSIFICATION_TYPE":"U","DECAY_DATE":null,"INCLINATION":"53.0523","NORAD_CAT_ID":"46685","ECCENTRICITY":"0.00007260","MEAN_ELEMENT_THEORY":"SGP4","MEAN_ANOMALY":"275.4677","SITE":"AFETR","BSTAR":"0.00114920000000","ARG_OF_PERICENTER":"84.6395"},{"MEAN_ANOMALY":"283.4287","MEAN_ELEMENT_THEORY":"SGP4","BSTAR":"0.00142410000000","SITE":"AFETR","ARG_OF_PERICENTER":"76.6817","CLASSIFICATION_TYPE":"U","DECAY_DATE":null,"NORAD_CAT_ID":"46686","INCLINATION":"53.0542","ECCENTRICITY":"0.00010270","MEAN_MOTION_DDOT":"0.0000000000000","RCS_SIZE":"LARGE","OBJECT_ID":"2020-073S","PERIAPSIS":"546.536","RA_OF_ASC_NODE":"298.6655","EPOCH":"2023-04-22T19:18:03.593664","APOAPSIS":"547.958","TIME_SYSTEM":"UTC","LAUNCH_DATE":"2020-10-18","CENTER_NAME":"EARTH","OBJECT_TYPE":"PAYLOAD","ELEMENT_SET_NO":"999","TLE_LINE1":"1 46686U 20073S   23112.80420826  .00020988  00000-0  14241-2 0  9992","SEMIMAJOR_AXIS":"6925.382","OBJECT_NAME":"STARLINK-1783","TLE_LINE2":"2 46686  53.0542 298.6655 0001027  76.6817 283.4287 15.06389105138371","GP_ID":"230591724","REF_FRAME":"TEME","REV_AT_EPOCH":"13837","EPHEMERIS_TYPE":"0","COUNTRY_CODE":"US","PERIOD":"95.593","MEAN_MOTION_DOT":"0.00020988","FILE":"3892285","MEAN_MOTION":"15.06389105"},{"SEMIMAJOR_AXIS":"6925.301","TLE_LINE1":"1 46687U 20073T   23112.13201096  .00012080  00000-0  82813-3 0  9990","OBJECT_NAME":"STARLINK-1784","ELEMENT_SET_NO":"999","OBJECT_TYPE":"PAYLOAD","CENTER_NAME":"EARTH","LAUNCH_DATE":"2020-10-18","MEAN_MOTION":"15.06415486","PERIOD":"95.591","MEAN_MOTION_DOT":"0.00012080","COUNTRY_CODE":"US","FILE":"3892071","REV_AT_EPOCH":"13876","EPHEMERIS_TYPE":"0","GP_ID":"230560060","TLE_LINE2":"2 46687  53.0538 266.7348 0000956  84.6826 275.4272 15.06415486138761","REF_FRAME":"TEME","DECAY_DATE":null,"INCLINATION":"53.0538","NORAD_CAT_ID":"46687","ECCENTRICITY":"0.00009560","CLASSIFICATION_TYPE":"U","ARG_OF_PERICENTER":"84.6826","MEAN_ELEMENT_THEORY":"SGP4","MEAN_ANOMALY":"275.4272","SITE":"AFETR","BSTAR":"0.00082813000000","TIME_SYSTEM":"UTC","APOAPSIS":"547.828","EPOCH":"2023-04-22T03:10:05.746944","RA_OF_ASC_NODE":"266.7348","PERIAPSIS":"546.504","RCS_SIZE":"LARGE","MEAN_MOTION_DDOT":"0.0000000000000","OBJECT_ID":"2020-073T"},{"EPOCH":"2023-04-22T19:40:39.495648","RA_OF_ASC_NODE":"298.6467","PERIAPSIS":"546.356","RCS_SIZE":"LARGE","MEAN_MOTION_DDOT":"0.0000000000000","OBJECT_ID":"2020-073V","TIME_SYSTEM":"UTC","APOAPSIS":"548.018","ARG_OF_PERICENTER":"97.8397","MEAN_ELEMENT_THEORY":"SGP4","MEAN_ANOMALY":"262.2728","BSTAR":"0.00061628000000","SITE":"AFETR","INCLINATION":"53.0533","DECAY_DATE":null,"NORAD_CAT_ID":"46689","ECCENTRICITY":"0.00012000","CLASSIFICATION_TYPE":"U","REV_AT_EPOCH":"13962","EPHEMERIS_TYPE":"0","TLE_LINE2":"2 46689  53.0533 298.6467 0001200  97.8397 262.2728 15.06408699139620","GP_ID":"230591224","REF_FRAME":"TEME","MEAN_MOTION":"15.06408699","MEAN_MOTION_DOT":"0.00008912","PERIOD":"95.592","COUNTRY_CODE":"US","FILE":"3892285","OBJECT_TYPE":"PAYLOAD","LAUNCH_DATE":"2020-10-18","CENTER_NAME":"EARTH","TLE_LINE1":"1 46689U 20073V   23112.81990157  .00008912  00000-0  61628-3 0  9990","SEMIMAJOR_AXIS":"6925.322","OBJECT_NAME":"STARLINK-1788","ELEMENT_SET_NO":"999"},{"ARG_OF_PERICENTER":"112.6516","BSTAR":"0.00105610000000","SITE":"AFETR","MEAN_ANOMALY":"247.4599","MEAN_ELEMENT_THEORY":"SGP4","ECCENTRICITY":"0.00011900","DECAY_DATE":null,"NORAD_CAT_ID":"46690","INCLINATION":"53.0530","CLASSIFICATION_TYPE":"U","PERIAPSIS":"546.457","EPOCH":"2023-04-22T03:45:55.080000","RA_OF_ASC_NODE":"276.6210","OBJECT_ID":"2020-073W","MEAN_MOTION_DDOT":"0.0000000000000","RCS_SIZE":"LARGE","TIME_SYSTEM":"UTC","APOAPSIS":"548.106","OBJECT_TYPE":"PAYLOAD","CENTER_NAME":"EARTH","LAUNCH_DATE":"2020-10-18","OBJECT_NAME":"STARLINK-1789","SEMIMAJOR_AXIS":"6925.417","TLE_LINE1":"1 46690U 20073W   23112.15688750  .00015475  00000-0  10561-2 0  9993","ELEMENT_SET_NO":"999","REV_AT_EPOCH":"13862","EPHEMERIS_TYPE":"0","REF_FRAME":"TEME","GP_ID":"230559559","TLE_LINE2":"2 46690  53.0530 276.6210 0001190 112.6516 247.4599 15.06377816138624","MEAN_MOTION":"15.06377816","FILE":"3892071","COUNTRY_CODE":"US","PERIOD":"95.594","MEAN_MOTION_DOT":"0.00015475"},{"ARG_OF_PERICENTER":"81.8075","MEAN_ANOMALY":"278.3033","MEAN_ELEMENT_THEORY":"SGP4","BSTAR":"0.00045614000000","SITE":"AFETR","INCLINATION":"53.0527","DECAY_DATE":null,"NORAD_CAT_ID":"46691","ECCENTRICITY":"0.00010490","CLASSIFICATION_TYPE":"U","PERIAPSIS":"546.460","EPOCH":"2023-04-22T19:40:01.478784","RA_OF_ASC_NODE":"283.6458","MEAN_MOTION_DDOT":"0.0000000000000","RCS_SIZE":"LARGE","OBJECT_ID":"2020-073X","TIME_SYSTEM":"UTC","APOAPSIS":"547.913","OBJECT_TYPE":"PAYLOAD","LAUNCH_DATE":"2020-10-18","CENTER_NAME":"EARTH","TLE_LINE1":"1 46691U 20073X   23112.81946156  .00006521  00000-0  45614-3 0  9994","SEMIMAJOR_AXIS":"6925.321","OBJECT_NAME":"STARLINK-1790","ELEMENT_SET_NO":"999","REV_AT_EPOCH":"13858","EPHEMERIS_TYPE":"0","GP_ID":"230592224","TLE_LINE2":"2 46691  53.0527 283.6458 0001049  81.8075 278.3033 15.06408943138580","REF_FRAME":"TEME","MEAN_MOTION":"15.06408943","COUNTRY_CODE":"US","PERIOD":"95.592","MEAN_MOTION_DOT":"0.00006521","FILE":"3892285"},{"OBJECT_ID":"2020-073Y","MEAN_MOTION_DDOT":"0.0000000000000","RCS_SIZE":"LARGE","PERIAPSIS":"546.548","RA_OF_ASC_NODE":"298.7094","EPOCH":"2023-04-22T19:19:26.305248","APOAPSIS":"547.876","TIME_SYSTEM":"UTC","BSTAR":"0.00102870000000","SITE":"AFETR","MEAN_ANOMALY":"276.6823","MEAN_ELEMENT_THEORY":"SGP4","ARG_OF_PERICENTER":"83.4275","CLASSIFICATION_TYPE":"U","ECCENTRICITY":"0.00009590","DECAY_DATE":null,"NORAD_CAT_ID":"46692","INCLINATION":"53.0536","REF_FRAME":"TEME","TLE_LINE2":"2 46692  53.0536 298.7094 0000959  83.4275 276.6823 15.06400617138378","GP_ID":"230591975","REV_AT_EPOCH":"13837","EPHEMERIS_TYPE":"0","FILE":"3892285","COUNTRY_CODE":"US","PERIOD":"95.592","MEAN_MOTION_DOT":"0.00015074","MEAN_MOTION":"15.06400617","CENTER_NAME":"EARTH","LAUNCH_DATE":"2020-10-18","OBJECT_TYPE":"PAYLOAD","ELEMENT_SET_NO":"999","OBJECT_NAME":"STARLINK-1791","TLE_LINE1":"1 46692U 20073Y   23112.80516557  .00015074  00000-0  10287-2 0  9992","SEMIMAJOR_AXIS":"6925.347"},{"ELEMENT_SET_NO":"999","OBJECT_NAME":"STARLINK-1792","SEMIMAJOR_AXIS":"6925.371","TLE_LINE1":"1 46693U 20073Z   23112.75676946  .00000034  00000-0  21194-4 0  9997","LAUNCH_DATE":"2020-10-18","CENTER_NAME":"EARTH","OBJECT_TYPE":"PAYLOAD","FILE":"3892285","MEAN_MOTION_DOT":"0.00000034","PERIOD":"95.593","COUNTRY_CODE":"US","MEAN_MOTION":"15.06392723","REF_FRAME":"TEME","GP_ID":"230590725","TLE_LINE2":"2 46693  53.0540 283.9247 0001028  91.9004 268.2102 15.06392723138579","REV_AT_EPOCH":"13857","EPHEMERIS_TYPE":"0","CLASSIFICATION_TYPE":"U","ECCENTRICITY":"0.00010280","DECAY_DATE":null,"INCLINATION":"53.0540","NORAD_CAT_ID":"46693","SITE":"AFETR","BSTAR":"0.00002119400000","MEAN_ELEMENT_THEORY":"SGP4","MEAN_ANOMALY":"268.2102","ARG_OF_PERICENTER":"91.9004","TIME_SYSTEM":"UTC","APOAPSIS":"547.948","OBJECT_ID":"2020-073Z","RCS_SIZE":"LARGE","MEAN_MOTION_DDOT":"0.0000000000000","EPOCH":"2023-04-22T18:09:44.881344","RA_OF_ASC_NODE":"283.9247","PERIAPSIS":"546.524"},{"MEAN_ELEMENT_THEORY":"SGP4","MEAN_ANOMALY":"270.6440","SITE":"AFETR","BSTAR":"0.00097970000000","ARG_OF_PERICENTER":"89.4703","CLASSIFICATION_TYPE":"U","DECAY_DATE":null,"NORAD_CAT_ID":"46694","INCLINATION":"53.0538","ECCENTRICITY":"0.00013510","RCS_SIZE":"LARGE","MEAN_MOTION_DDOT":"0.0000000000000","OBJECT_ID":"2020-073AA","EPOCH":"2023-04-22T17:08:43.792800","RA_OF_ASC_NODE":"264.1198","PERIAPSIS":"546.314","TIME_SYSTEM":"UTC","APOAPSIS":"548.186","LAUNCH_DATE":"2020-10-18","CENTER_NAME":"EARTH","OBJECT_TYPE":"PAYLOAD","ELEMENT_SET_NO":"999","SEMIMAJOR_AXIS":"6925.385","TLE_LINE1":"1 46694U 20073AA  23112.71439575  .00014336  00000-0  97970-3 0  9993","OBJECT_NAME":"STARLINK-1793","TLE_LINE2":"2 46694  53.0538 264.1198 0001351  89.4703 270.6440 15.06388122138851","GP_ID":"230590975","REF_FRAME":"TEME","REV_AT_EPOCH":"13885","EPHEMERIS_TYPE":"0","PERIOD":"95.593","MEAN_MOTION_DOT":"0.00014336","COUNTRY_CODE":"US","FILE":"3892285","MEAN_MOTION":"15.06388122"},{"BSTAR":"0.00081598000000","SITE":"AFETR","MEAN_ELEMENT_THEORY":"SGP4","MEAN_ANOMALY":"273.8014","ARG_OF_PERICENTER":"86.3090","CLASSIFICATION_TYPE":"U","ECCENTRICITY":"0.00010030","DECAY_DATE":null,"INCLINATION":"53.0534","NORAD_CAT_ID":"46696","OBJECT_ID":"2020-073AC","RCS_SIZE":"LARGE","MEAN_MOTION_DDOT":"0.0000000000000","EPOCH":"2023-04-22T03:15:25.913376","RA_OF_ASC_NODE":"266.7150","PERIAPSIS":"546.517","TIME_SYSTEM":"UTC","APOAPSIS":"547.907","CENTER_NAME":"EARTH","LAUNCH_DATE":"2020-10-18","OBJECT_TYPE":"PAYLOAD","ELEMENT_SET_NO":"999","OBJECT_NAME":"STARLINK-1795","SEMIMAJOR_AXIS":"6925.347","TLE_LINE1":"1 46696U 20073AC  23112.13571659  .00011894  00000-0  81598-3 0  9996","REF_FRAME":"TEME","TLE_LINE2":"2 46696  53.0534 266.7150 0001003  86.3090 273.8014 15.06400502138763","GP_ID":"230559810","EPHEMERIS_TYPE":"0","REV_AT_EPOCH":"13876","FILE":"3892071","PERIOD":"95.592","MEAN_MOTION_DOT":"0.00011894","COUNTRY_CODE":"US","MEAN_MOTION":"15.06400502"}];
